{
  "type": "FeatureCollection",
  "features": [
    {
      "type": "Feature",
      "properties": {
        "parcel": "628005",
        "owner": "GABRIELLI, LILLIAN TRUST",
        "legal": "T24N R50E Sec.17 S2SW4; SW4SE4 (MDB&M)",
        "acres": 120,
        "county": "Eureka",
        "state": "NV",
        "source": "Eureka County Tax_Parcels_1 FeatureServer",
        "crs": "EPSG:4326"
      },
      "geometry": {
        "type": "Polygon",
        "coordinates": [
          [
            [-116.351885164039, 39.9542867111624],
            [-116.356573847791, 39.9542382356238],
            [-116.361262526459, 39.9541897604836],
            [-116.365951209397, 39.9541412866679],
            [-116.365969500387, 39.9577334556096],
            [-116.361278878262, 39.9577838252582],
            [-116.356588253055, 39.9578339519564],
            [-116.351897637756, 39.9578840780311],
            [-116.351885164039, 39.9542867111624]
          ]
        ]
      }
    }
  ]
}
